OKEAN-3                 
1 21397U 91039A   25310.15505259  .00005673  00000+0  41060-3 0  9991
2 21397  82.5149  96.4462 0015316  34.7179 325.5043 15.03738046846468
COSMOS 2151             
1 21422U 91042A   25310.25721709  .00003119  00000+0  25168-3 0  9999
2 21422  82.4993 202.6497 0013981 112.5527 247.7178 14.99485779844693
SL-14 R/B               
1 21423U 91042B   25310.18015771  .00000596  00000+0  72692-4 0  9998
2 21423  82.4928 336.0114 0015534 288.7836  71.1693 14.81688578834788
ERS-1                   
1 21574U 91050A   25310.31049347  .00000463  00000+0  16305-3 0  9996
2 21574  98.7927 320.4502 0031518 206.5909 153.3662 14.39321325797987
ARIANE 40 R/B           
1 21610U 91050F   25310.16937550  .00000530  00000+0  17171-3 0  9999
2 21610  98.2219   1.9107 0004370  90.9574 269.2117 14.42764852801188
INTERCOSMOS 25          
1 21819U 91086A   25310.30749485  .00001584  00000+0  30704-3 0  9990
2 21819  82.6089  24.5945 1488680  22.9162 343.1818 12.11569271481749
SL-8 R/B                
1 21876U 92008B   25310.24888537  .00000138  00000+0  12571-3 0  9999
2 21876  82.9293 359.5879 0036005 118.5917 308.5413 13.75947818692443
SL-8 R/B                
1 21938U 92020B   25310.26299942  .00000058  00000+0  44335-4 0  9995
2 21938  82.9302 245.4023 0027677 283.4752 189.7608 13.75520329684160
USA 81                  
1 21949U 92023A   25310.21771533  .00000282  00000+0  97087-4 0  9997
2 21949  85.0116 202.6333 0002746  81.7383 278.4121 14.32306458 77113
COSMOS 2219             
1 22219U 92076A   25310.29390778  .00000295  00000+0  17964-3 0  9991
2 22219  71.0601 276.0157 0017233  21.8713 338.3141 14.14062224700937
SL-16 R/B               
1 22220U 92076B   25309.81406383  .00000264  00000+0  15572-3 0  9998
2 22220  70.9989  89.3112 0015065 281.9990 246.7399 14.16832565704283
COSMOS 2221             
1 22236U 92080A   25310.28933463  .00002991  00000+0  26724-3 0  9997
2 22236  82.5072  37.2017 0013309 244.3247 115.6601 14.95540330762349
