CCSDS_OMM_VERS = 2.0
CREATION_DATE  = 
ORIGINATOR     = 

OBJECT_NAME    = OKEAN-3
OBJECT_ID      = 1991-039A
CENTER_NAME    = EARTH
REF_FRAME      = TEME
TIME_SYSTEM    = UTC
MEAN_ELEMENT_THEORY = SGP/SGP4

EPOCH          = 2025-11-06T03:43:16.543776
MEAN_MOTION    = 15.03738046
ECCENTRICITY   = .00153168
INCLINATION    = 82.5149
RA_OF_ASC_NODE = 96.4462
ARG_OF_PERICENTER = 34.7179
MEAN_ANOMALY   = 325.5043

EPHEMERIS_TYPE = 0
CLASSIFICATION_TYPE = U
NORAD_CAT_ID   = 21397
ELEMENT_SET_NO = 999
REV_AT_EPOCH   = 84646
BSTAR          = .41060446E-3
MEAN_MOTION_DOT = .5673E-4
MEAN_MOTION_DDOT = 0

CCSDS_OMM_VERS = 2.0
CREATION_DATE  = 
ORIGINATOR     = 

OBJECT_NAME    = COSMOS 2151
OBJECT_ID      = 1991-042A
CENTER_NAME    = EARTH
REF_FRAME      = TEME
TIME_SYSTEM    = UTC
MEAN_ELEMENT_THEORY = SGP/SGP4

EPOCH          = 2025-11-06T06:10:23.556576
MEAN_MOTION    = 14.99485779
ECCENTRICITY   = .00139819
INCLINATION    = 82.4993
RA_OF_ASC_NODE = 202.6497
ARG_OF_PERICENTER = 112.5527
MEAN_ANOMALY   = 247.7178

EPHEMERIS_TYPE = 0
CLASSIFICATION_TYPE = U
NORAD_CAT_ID   = 21422
ELEMENT_SET_NO = 999
REV_AT_EPOCH   = 84469
BSTAR          = .25168336E-3
MEAN_MOTION_DOT = .3119E-4
MEAN_MOTION_DDOT = 0

CCSDS_OMM_VERS = 2.0
CREATION_DATE  = 
ORIGINATOR     = 

OBJECT_NAME    = SL-14 R/B
OBJECT_ID      = 1991-042B
CENTER_NAME    = EARTH
REF_FRAME      = TEME
TIME_SYSTEM    = UTC
MEAN_ELEMENT_THEORY = SGP/SGP4

EPOCH          = 2025-11-06T04:19:25.626144
MEAN_MOTION    = 14.81688578
ECCENTRICITY   = .00155344
INCLINATION    = 82.4928
RA_OF_ASC_NODE = 336.0114
ARG_OF_PERICENTER = 288.7836
MEAN_ANOMALY   = 71.1693

EPHEMERIS_TYPE = 0
CLASSIFICATION_TYPE = U
NORAD_CAT_ID   = 21423
ELEMENT_SET_NO = 999
REV_AT_EPOCH   = 83478
BSTAR          = .72691654E-4
MEAN_MOTION_DOT = .596E-5
MEAN_MOTION_DDOT = 0

CCSDS_OMM_VERS = 2.0
CREATION_DATE  = 
ORIGINATOR     = 

OBJECT_NAME    = ERS-1
OBJECT_ID      = 1991-050A
CENTER_NAME    = EARTH
REF_FRAME      = TEME
TIME_SYSTEM    = UTC
MEAN_ELEMENT_THEORY = SGP/SGP4

EPOCH          = 2025-11-06T07:27:06.635808
MEAN_MOTION    = 14.39321325
ECCENTRICITY   = .00315184
INCLINATION    = 98.7927
RA_OF_ASC_NODE = 320.4502
ARG_OF_PERICENTER = 206.5909
MEAN_ANOMALY   = 153.3662

EPHEMERIS_TYPE = 0
CLASSIFICATION_TYPE = U
NORAD_CAT_ID   = 21574
ELEMENT_SET_NO = 999
REV_AT_EPOCH   = 79798
BSTAR          = .16304718E-3
MEAN_MOTION_DOT = .463E-5
MEAN_MOTION_DDOT = 0

CCSDS_OMM_VERS = 2.0
CREATION_DATE  = 
ORIGINATOR     = 

OBJECT_NAME    = ARIANE 40 R/B
OBJECT_ID      = 1991-050F
CENTER_NAME    = EARTH
REF_FRAME      = TEME
TIME_SYSTEM    = UTC
MEAN_ELEMENT_THEORY = SGP/SGP4

EPOCH          = 2025-11-06T04:03:54.043200
MEAN_MOTION    = 14.42764852
ECCENTRICITY   = .00043707
INCLINATION    = 98.2219
RA_OF_ASC_NODE = 1.9107
ARG_OF_PERICENTER = 90.9574
MEAN_ANOMALY   = 269.2117

EPHEMERIS_TYPE = 0
CLASSIFICATION_TYPE = U
NORAD_CAT_ID   = 21610
ELEMENT_SET_NO = 999
REV_AT_EPOCH   = 80118
BSTAR          = .17170606E-3
MEAN_MOTION_DOT = .53E-5
MEAN_MOTION_DDOT = 0

CCSDS_OMM_VERS = 2.0
CREATION_DATE  = 
ORIGINATOR     = 

OBJECT_NAME    = INTERCOSMOS 25
OBJECT_ID      = 1991-086A
CENTER_NAME    = EARTH
REF_FRAME      = TEME
TIME_SYSTEM    = UTC
MEAN_ELEMENT_THEORY = SGP/SGP4

EPOCH          = 2025-11-06T07:22:47.555040
MEAN_MOTION    = 12.11569271
ECCENTRICITY   = .14886801
INCLINATION    = 82.6089
RA_OF_ASC_NODE = 24.5945
ARG_OF_PERICENTER = 22.9162
MEAN_ANOMALY   = 343.1818

EPHEMERIS_TYPE = 0
CLASSIFICATION_TYPE = U
NORAD_CAT_ID   = 21819
ELEMENT_SET_NO = 999
REV_AT_EPOCH   = 48174
BSTAR          = .30704229E-3
MEAN_MOTION_DOT = .1584E-4
MEAN_MOTION_DDOT = 0

CCSDS_OMM_VERS = 2.0
CREATION_DATE  = 
ORIGINATOR     = 

OBJECT_NAME    = SL-8 R/B
OBJECT_ID      = 1992-008B
CENTER_NAME    = EARTH
REF_FRAME      = TEME
TIME_SYSTEM    = UTC
MEAN_ELEMENT_THEORY = SGP/SGP4

EPOCH          = 2025-11-06T05:58:23.695968
MEAN_MOTION    = 13.75947818
ECCENTRICITY   = .00360057
INCLINATION    = 82.9293
RA_OF_ASC_NODE = 359.5879
ARG_OF_PERICENTER = 118.5917
MEAN_ANOMALY   = 308.5413

EPHEMERIS_TYPE = 0
CLASSIFICATION_TYPE = U
NORAD_CAT_ID   = 21876
ELEMENT_SET_NO = 999
REV_AT_EPOCH   = 69244
BSTAR          = .12570909E-3
MEAN_MOTION_DOT = .138E-5
MEAN_MOTION_DDOT = 0

CCSDS_OMM_VERS = 2.0
CREATION_DATE  = 
ORIGINATOR     = 

OBJECT_NAME    = SL-8 R/B
OBJECT_ID      = 1992-020B
CENTER_NAME    = EARTH
REF_FRAME      = TEME
TIME_SYSTEM    = UTC
MEAN_ELEMENT_THEORY = SGP/SGP4

EPOCH          = 2025-11-06T06:18:43.149888
MEAN_MOTION    = 13.75520329
ECCENTRICITY   = .00276774
INCLINATION    = 82.9302
RA_OF_ASC_NODE = 245.4023
ARG_OF_PERICENTER = 283.4752
MEAN_ANOMALY   = 189.7608

EPHEMERIS_TYPE = 0
CLASSIFICATION_TYPE = U
NORAD_CAT_ID   = 21938
ELEMENT_SET_NO = 999
REV_AT_EPOCH   = 68416
BSTAR          = .44335226E-4
MEAN_MOTION_DOT = .58E-6
MEAN_MOTION_DDOT = 0

CCSDS_OMM_VERS = 2.0
CREATION_DATE  = 
ORIGINATOR     = 

OBJECT_NAME    = USA 81
OBJECT_ID      = 1992-023A
CENTER_NAME    = EARTH
REF_FRAME      = TEME
TIME_SYSTEM    = UTC
MEAN_ELEMENT_THEORY = SGP/SGP4

EPOCH          = 2025-11-06T05:13:30.604512
MEAN_MOTION    = 14.32306458
ECCENTRICITY   = .00027468
INCLINATION    = 85.0116
RA_OF_ASC_NODE = 202.6333
ARG_OF_PERICENTER = 81.7383
MEAN_ANOMALY   = 278.4121

EPHEMERIS_TYPE = 0
CLASSIFICATION_TYPE = U
NORAD_CAT_ID   = 21949
ELEMENT_SET_NO = 999
REV_AT_EPOCH   = 7711
BSTAR          = .97086767E-4
MEAN_MOTION_DOT = .282E-5
MEAN_MOTION_DDOT = 0

CCSDS_OMM_VERS = 2.0
CREATION_DATE  = 
ORIGINATOR     = 

OBJECT_NAME    = COSMOS 2219
OBJECT_ID      = 1992-076A
CENTER_NAME    = EARTH
REF_FRAME      = TEME
TIME_SYSTEM    = UTC
MEAN_ELEMENT_THEORY = SGP/SGP4

EPOCH          = 2025-11-06T07:03:13.632192
MEAN_MOTION    = 14.14062224
ECCENTRICITY   = .00172336
INCLINATION    = 71.0601
RA_OF_ASC_NODE = 276.0157
ARG_OF_PERICENTER = 21.8713
MEAN_ANOMALY   = 338.3141

EPHEMERIS_TYPE = 0
CLASSIFICATION_TYPE = U
NORAD_CAT_ID   = 22219
ELEMENT_SET_NO = 999
REV_AT_EPOCH   = 70093
BSTAR          = .17963507E-3
MEAN_MOTION_DOT = .295E-5
MEAN_MOTION_DDOT = 0

CCSDS_OMM_VERS = 2.0
CREATION_DATE  = 
ORIGINATOR     = 

OBJECT_NAME    = SL-16 R/B
OBJECT_ID      = 1992-076B
CENTER_NAME    = EARTH
REF_FRAME      = TEME
TIME_SYSTEM    = UTC
MEAN_ELEMENT_THEORY = SGP/SGP4

EPOCH          = 2025-11-05T19:32:15.114912
MEAN_MOTION    = 14.16832565
ECCENTRICITY   = .00150652
INCLINATION    = 70.9989
RA_OF_ASC_NODE = 89.3112
ARG_OF_PERICENTER = 281.9990
MEAN_ANOMALY   = 246.7399

EPHEMERIS_TYPE = 0
CLASSIFICATION_TYPE = U
NORAD_CAT_ID   = 22220
ELEMENT_SET_NO = 999
REV_AT_EPOCH   = 70428
BSTAR          = .15571678E-3
MEAN_MOTION_DOT = .264E-5
MEAN_MOTION_DDOT = 0

CCSDS_OMM_VERS = 2.0
CREATION_DATE  = 
ORIGINATOR     = 

OBJECT_NAME    = COSMOS 2221
OBJECT_ID      = 1992-080A
CENTER_NAME    = EARTH
REF_FRAME      = TEME
TIME_SYSTEM    = UTC
MEAN_ELEMENT_THEORY = SGP/SGP4

EPOCH          = 2025-11-06T06:56:38.512032
MEAN_MOTION    = 14.95540330
ECCENTRICITY   = .00133095
INCLINATION    = 82.5072
RA_OF_ASC_NODE = 37.2017
ARG_OF_PERICENTER = 244.3247
MEAN_ANOMALY   = 115.6601

EPHEMERIS_TYPE = 0
CLASSIFICATION_TYPE = U
NORAD_CAT_ID   = 22236
ELEMENT_SET_NO = 999
REV_AT_EPOCH   = 76234
BSTAR          = .26724095E-3
MEAN_MOTION_DOT = .2991E-4
MEAN_MOTION_DDOT = 0

